{
  "type": "FeatureCollection",
  "name": "single southwest-quadrant ignition",
  "crs": {
    "type": "name",
    "properties": {
      "name": "urn:ogc:def:crs:OGC:1.3:CRS84"
    }
  },
  "features": [
    {
      "type": "Feature",
      "properties": {
        "GRID_ID": "SW_QUADRANT_CENTER",
        "definition": "25% across and 25% up the AOI projected bounding box",
        "requested_x_epsg3005": 1608495.3928536014,
        "requested_y_epsg3005": 532257.0543691869
      },
      "geometry": {
        "type": "Point",
        "coordinates": [
          -117.58846700359625,
          49.48088023740381
        ]
      }
    }
  ]
}
