{"type":"FeatureCollection","crs":{"type":"name","properties":{"name":"EPSG:3005"}},"features":[{"type":"Feature","id":1017253,"geometry":{"type":"LineString","coordinates":[[1612690.5380000006,538251.10300000012],[1612684.7589999996,538265.5549999997],[1612676.4159999993,538282.56900000013],[1612674.4000000004,538291.41499999911],[1612673.9969999995,538309.54399999976],[1612680.2210000008,538332.4570000004],[1612678.3839999996,538355.35600000061],[1612675.7970000003,538375.29499999993]]},"properties":{"OBJECTID":1017253,"EDGE_TYPE":1000,"GNIS_NAME":null,"BLUE_LINE_KEY":356567471,"WATERSHED_KEY":356567471,"STREAM_ORDER":3,"STREAM_MAGNITUDE":12,"LEFT_RIGHT_TRIBUTARY":"RIGHT","LENGTH_METRE":128.543275271547,"DOWNSTREAM_ROUTE_MEASURE":1872.3565978706001,"FWA_WATERSHED_CODE":"300-625474-033788-600246-000000-000000-000000-000000-000000-000000-000000-000000-000000-000000-000000-000000-000000-000000-000000-000000-000000"}},{"type":"Feature","id":2205749,"geometry":{"type":"LineString","coordinates":[[1612909.602,537957.45099999942],[1612901.4199999999,537966.51099999994],[1612893.25,537974.61700000055],[1612880.307,537989.00400000066],[1612858.8790000007,538007.47199999914],[1612842.3440000005,538026.52899999917],[1612832.9350000005,538044.53099999949],[1612821.4609999992,538063.24100000039],[1612808.9790000003,538074.65399999917],[1612802.8739999998,538082.05100000091],[1612795.3340000007,538094.21800000034],[1612789.3359999992,538101.46900000051],[1612783.6769999992,538114.8200000003],[1612780.6899999995,538121.47599999979],[1612780.568,538130.55000000075],[1612774.909,538143.90100000054],[1612765.3310000002,538154.86600000039],[1612755.3859999999,538169.61400000006],[1612743.2579999994,538178.19999999925],[1612728.3129999992,538192.50599999912],[1612723.7229999993,538196.89599999972],[1612719.0120000001,538202.38900000043],[1612706.5920000002,538220.9849999994],[1612703.591,538228.59600000083],[1612690.5380000006,538251.10300000012]]},"properties":{"OBJECTID":2205749,"EDGE_TYPE":1000,"GNIS_NAME":null,"BLUE_LINE_KEY":356567471,"WATERSHED_KEY":356567471,"STREAM_ORDER":3,"STREAM_MAGNITUDE":15,"LEFT_RIGHT_TRIBUTARY":"RIGHT","LENGTH_METRE":372.49296653191504,"DOWNSTREAM_ROUTE_MEASURE":1499.8636313386901,"FWA_WATERSHED_CODE":"300-625474-033788-600246-000000-000000-000000-000000-000000-000000-000000-000000-000000-000000-000000-000000-000000-000000-000000-000000-000000"}},{"type":"Feature","id":2209464,"geometry":{"type":"LineString","coordinates":[[1612675.7970000003,538375.29499999993],[1612679.3269999996,538394.85400000028],[1612678.4389999993,538409.89499999955],[1612675.1469999999,538419.54499999993],[1612672.1950000003,538435.29399999976],[1612668.4279999994,538448.87299999967],[1612659.7809999995,538468.88000000082],[1612652.4220000003,538487.12800000049],[1612646.3000000007,538503.45299999975],[1612640.5299999993,538524.92200000025],[1612637.409,538533.63499999978],[1612632.5749999993,538548.20199999958],[1612630.5219999999,538555.92699999921],[1612625.9790000003,538568.45600000024],[1612622.5639999993,538587.17899999954],[1612609.1569999997,538604.53999999911],[1612605.2599999998,538612.20299999975],[1612604.3239999991,538619.10700000077],[1612597.5590000004,538632.32399999909],[1612593.9519999996,538637.94999999925],[1612590.0179999992,538644.49200000055],[1612576.477,538663.91000000015],[1612570.8770000003,538684.44400000013],[1612569.7699999996,538692.28299999982],[1612567.4590000007,538711.13900000043],[1612567.2259999998,538728.3320000004],[1612565.5209999997,538749.17400000058],[1612564.4509999994,538758.13399999961]]},"properties":{"OBJECTID":2209464,"EDGE_TYPE":1000,"GNIS_NAME":null,"BLUE_LINE_KEY":356567471,"WATERSHED_KEY":356567471,"STREAM_ORDER":3,"STREAM_MAGNITUDE":11,"LEFT_RIGHT_TRIBUTARY":"RIGHT","LENGTH_METRE":407.01040612338403,"DOWNSTREAM_ROUTE_MEASURE":2000.8998731421502,"FWA_WATERSHED_CODE":"300-625474-033788-600246-000000-000000-000000-000000-000000-000000-000000-000000-000000-000000-000000-000000-000000-000000-000000-000000-000000"}},{"type":"Feature","id":3085784,"geometry":{"type":"LineString","coordinates":[[1612638.9379999992,539060.97000000067],[1612640.0519999992,539068.12099999934],[1612640.875,539077.30800000019],[1612640.7640000004,539085.42699999921],[1612639.0470000003,539099.25300000049],[1612638.1099999994,539106.15599999949],[1612637.3440000005,539112.12299999967],[1612637.5109999999,539119.15899999999],[1612635.9780000001,539131.09300000034],[1612634.9169999994,539147.0700000003],[1612632.7760000005,539164.99000000022],[1612630.4759999998,539182.89100000076],[1612629.8300000001,539187.75599999912],[1612624.0099999998,539201.08799999952],[1612620.125,539207.79499999993],[1612616.4680000003,539213.25500000082],[1612610.3469999991,539221.60700000077],[1612604.3469999991,539228.85799999908],[1612601.6870000008,539234.59699999914],[1612595.6870000008,539241.84699999914],[1612581.5020000003,539258.15899999999],[1612576.7899999991,539263.65100000054],[1612563.8560000006,539277.08300000057],[1612552.5350000001,539295.81200000085],[1612540.4269999992,539310.45900000073],[1612528.8149999995,539331.22599999979],[1612526.7599999998,539338.95099999942],[1612519.5769999996,539363.28099999949],[1612515.966,539376.87800000049],[1612512.8430000003,539385.59100000001],[1612508.1370000001,539406.07300000079],[1612504.7190000005,539424.79600000009],[1612499.6980000008,539441.25300000049],[1612498.1779999994,539452.23200000077],[1612494.4550000001,539473.94800000079],[1612492.2750000004,539490.74699999951],[1612492.3300000001,539505.9020000007],[1612496.6129999999,539512.47699999996],[1612509.3159999996,539531.22699999996],[1612517.4189999998,539547.34999999963],[1612520.7770000007,539559.87199999951],[1612526.6490000002,539569.6679999996],[1612536.3579999991,539580.08500000089],[1612549.5240000002,539595.86099999957],[1612557.1510000005,539615.91300000064],[1612559.7329999991,539627.38599999994],[1612558.9749999996,539640.36999999918],[1612555.5559999999,539659.09300000034],[1612549.7719999999,539673.54499999993],[1612539.8210000005,539688.2929999996]]},"properties":{"OBJECTID":3085784,"EDGE_TYPE":1000,"GNIS_NAME":null,"BLUE_LINE_KEY":356567471,"WATERSHED_KEY":356567471,"STREAM_ORDER":3,"STREAM_MAGNITUDE":5,"LEFT_RIGHT_TRIBUTARY":"RIGHT","LENGTH_METRE":689.60825276435901,"DOWNSTREAM_ROUTE_MEASURE":2729.2740929046704,"FWA_WATERSHED_CODE":"300-625474-033788-600246-000000-000000-000000-000000-000000-000000-000000-000000-000000-000000-000000-000000-000000-000000-000000-000000-000000"}},{"type":"Feature","id":3124020,"geometry":{"type":"LineString","coordinates":[[1613854.0749999993,536943.90100000054],[1613848.1290000007,536959.2890000008],[1613830.9670000002,536974.28099999949],[1613810.3210000005,536985.82399999909],[1613795.7780000009,536989.97100000083],[1613783.7850000001,536996.49799999967],[1613773.2510000002,537008.30399999954],[1613760.9680000003,537024.84100000001],[1613748.5010000002,537035.29800000042],[1613730.0769999996,537054.125],[1613724.5539999995,537057.4450000003],[1613708.6030000001,537064.45199999958],[1613685.6710000001,537061.52899999917],[1613672.7310000006,537059.97000000067],[1613665.1439999994,537063.99799999967],[1613643.8540000003,537080.40699999966],[1613634.4230000004,537084.37299999967],[1613628.3760000002,537083.4849999994],[1613620.1960000005,537084.57200000063],[1613609.4399999995,537089.17600000091],[1613593.6720000003,537102.2650000006],[1613585.1380000003,537106.17899999954],[1613577.2479999997,537105.22800000012],[1613558.432,537101.84500000067],[1613551.0150000006,537104.93799999915],[1613536.9580000006,537112.17300000042],[1613527.0170000009,537118.94800000079],[1613508.8939999994,537134.78299999982],[1613499.3059999999,537146.70299999975],[1613487.023,537155.26799999923],[1613465.5989999995,537173.7349999994],[1613450.3169999998,537189.91200000048],[1613441.7829999998,537193.82599999942],[1613419.0710000005,537206.07899999991],[1613401.1889999993,537211.7379999999],[1613386.0150000006,537211.82300000079],[1613379.7280000001,537213.13900000043],[1613373.2449999992,537217.30100000091],[1613366.3139999993,537223.48200000077],[1613347.4269999992,537245.28399999999],[1613341.8910000008,537249.56000000052],[1613331.3690000009,537260.41100000031],[1613324.898,537271.59100000001],[1613302.8430000003,537293.96800000034],[1613299.2379999999,537299.59300000034],[1613292.5399999991,537319.99300000072],[1613289.8320000004,537325.56699999981],[1613280.5460000001,537334.49400000088],[1613272.3650000002,537343.55399999954],[1613269.2459999993,537352.26700000092],[1613259.9600000009,537369.16699999943],[1613244.2410000004,537390.39399999939],[1613239.7149999999,537401.96700000018],[1613234.8340000007,537416.36800000072],[1613227.2970000003,537428.53500000015],[1613222.4299999997,537434.00799999945]]},"properties":{"OBJECTID":3124020,"EDGE_TYPE":1000,"GNIS_NAME":null,"BLUE_LINE_KEY":356567471,"WATERSHED_KEY":356567471,"STREAM_ORDER":4,"STREAM_MAGNITUDE":24,"LEFT_RIGHT_TRIBUTARY":"RIGHT","LENGTH_METRE":851.72078648708907,"DOWNSTREAM_ROUTE_MEASURE":0,"FWA_WATERSHED_CODE":"300-625474-033788-600246-000000-000000-000000-000000-000000-000000-000000-000000-000000-000000-000000-000000-000000-000000-000000-000000-000000"}},{"type":"Feature","id":3404862,"geometry":{"type":"LineString","coordinates":[[1612327.6740000006,540616.78500000015],[1612319.4859999996,540625.84500000067],[1612295.6530000009,540630.94999999925],[1612284.8929999992,540635.55599999987],[1612278.4059999995,540639.71800000034]]},"properties":{"OBJECTID":3404862,"EDGE_TYPE":1000,"GNIS_NAME":null,"BLUE_LINE_KEY":356567471,"WATERSHED_KEY":356567471,"STREAM_ORDER":2,"STREAM_MAGNITUDE":2,"LEFT_RIGHT_TRIBUTARY":"RIGHT","LENGTH_METRE":55.997536772719798,"DOWNSTREAM_ROUTE_MEASURE":4464.8284227672102,"FWA_WATERSHED_CODE":"300-625474-033788-600246-000000-000000-000000-000000-000000-000000-000000-000000-000000-000000-000000-000000-000000-000000-000000-000000-000000"}},{"type":"Feature","id":3801237,"geometry":{"type":"LineString","coordinates":[[1612475.4680000003,540439.07799999975],[1612439.8350000009,540549.75699999928],[1612327.6740000006,540616.78500000015]]},"properties":{"OBJECTID":3801237,"EDGE_TYPE":1200,"GNIS_NAME":null,"BLUE_LINE_KEY":356567471,"WATERSHED_KEY":356567471,"STREAM_ORDER":2,"STREAM_MAGNITUDE":2,"LEFT_RIGHT_TRIBUTARY":"RIGHT","LENGTH_METRE":246.936784159799,"DOWNSTREAM_ROUTE_MEASURE":4217.8916386074197,"FWA_WATERSHED_CODE":"300-625474-033788-600246-000000-000000-000000-000000-000000-000000-000000-000000-000000-000000-000000-000000-000000-000000-000000-000000-000000"}},{"type":"Feature","id":4877621,"geometry":{"type":"LineString","coordinates":[[1612564.4509999994,538758.13399999961],[1612570.5050000008,538774.01099999994],[1612574.0830000006,538793.7349999994],[1612579.0319999997,538809.47900000028],[1612587.2579999994,538824.50100000016],[1612593.1919999998,538841.47900000028],[1612601.7819999997,538860.68999999948],[1612606.0649999995,538867.2650000006],[1612609.4149999991,538872.77099999972],[1612614.5350000001,538887.57799999975],[1612620.7689999994,538909.53600000031],[1612624.2259999998,538914.89499999955],[1612625.2339999992,538922.19099999964],[1612626.2239999995,538938.41499999911],[1612624.9829999991,538948.31200000085],[1612623.9130000006,538957.27199999988],[1612621.273,538977.04499999993],[1612619.4330000002,538999.94400000013],[1612617.7890000008,539019.99699999951],[1612619.7170000002,539029.31799999997],[1612623.659,539037.7650000006],[1612635.8790000007,539053.42699999921],[1612638.9379999992,539060.97000000067]]},"properties":{"OBJECTID":4877621,"EDGE_TYPE":1000,"GNIS_NAME":null,"BLUE_LINE_KEY":356567471,"WATERSHED_KEY":356567471,"STREAM_ORDER":3,"STREAM_MAGNITUDE":6,"LEFT_RIGHT_TRIBUTARY":"RIGHT","LENGTH_METRE":321.36381363913802,"DOWNSTREAM_ROUTE_MEASURE":2407.9102792655303,"FWA_WATERSHED_CODE":"300-625474-033788-600246-000000-000000-000000-000000-000000-000000-000000-000000-000000-000000-000000-000000-000000-000000-000000-000000-000000"}},{"type":"Feature","id":557928,"geometry":{"type":"LineString","coordinates":[[1612278.4059999995,540639.71800000034],[1612275.7200000007,540628.39299999923],[1612262.8929999992,540618.71700000018],[1612244.0649999995,540616.29199999943],[1612230.2990000006,540613.51999999955],[1612211.3129999992,540611.07599999942],[1612195.3619999997,540610.11400000006],[1612182.3719999995,540608.39200000092],[1612173.193,540609.20099999942],[1612163.7090000007,540613.00300000049],[1612148.2410000004,540615.12900000066],[1612137.6390000004,540619.75300000049],[1612117.6359999999,540633.45199999958],[1612102.6129999999,540641.53099999949],[1612086.0720000006,540652.61700000055],[1612068.5329999998,540663.42300000042],[1612051.6429999992,540669.36400000006],[1612032.5289999992,540675.99499999918],[1612014.6919999998,540681.82200000063],[1612002.2090000007,540685.26400000043],[1611982.1490000002,540691.78099999949],[1611975.6760000009,540694.98900000006],[1611966.6620000005,540702.83400000073],[1611947.1160000004,540721.53199999966],[1611927.875,540737.23599999957],[1611921.2750000004,540749.51799999923],[1611911.6769999992,540761.43899999931],[1611898.0830000006,540772.72000000067],[1611885.0030000005,540781.19299999997],[1611873.0040000007,540787.7229999993],[1611852.1180000007,540793.02500000037],[1611834.2799999993,540798.85199999996],[1611809.8550000004,540816.00699999928],[1611800.841,540823.85300000012],[1611797.0739999991,540829.45900000073],[1611783.8159999996,540846.83999999985],[1611776.9240000006,540861.16000000015],[1611767.966,540876.18799999915],[1611759.4220000003,540888.07599999942],[1611757.5490000006,540893.91000000015]]},"properties":{"OBJECTID":557928,"EDGE_TYPE":1000,"GNIS_NAME":null,"BLUE_LINE_KEY":356567471,"WATERSHED_KEY":356567471,"STREAM_ORDER":1,"STREAM_MAGNITUDE":1,"LEFT_RIGHT_TRIBUTARY":"RIGHT","LENGTH_METRE":640.42682568830708,"DOWNSTREAM_ROUTE_MEASURE":4520.8259595399295,"FWA_WATERSHED_CODE":"300-625474-033788-600246-000000-000000-000000-000000-000000-000000-000000-000000-000000-000000-000000-000000-000000-000000-000000-000000-000000"}},{"type":"Feature","id":4389314,"geometry":{"type":"LineString","coordinates":[[1613222.4299999997,537434.00799999945],[1613208.2390000001,537443.30100000091],[1613185.5260000005,537463.5270000007],[1613182.8800000008,537476.28299999982],[1613179.8230000008,537500.1520000007],[1613177.3599999994,537518.98900000006],[1613177.5289999992,537526.02600000054],[1613176.6429999992,537549.0390000008],[1613181.2939999998,537567.7770000007],[1613181.1730000004,537576.85099999979],[1613175.8809999991,537594.39100000076],[1613172.068,537599.8320000004],[1613157.7689999994,537617.24400000088],[1613151.7589999996,537625.44899999909],[1613135.4079999998,537642.61500000022],[1613130.9890000001,537646.06900000013]]},"properties":{"OBJECTID":4389314,"EDGE_TYPE":1000,"GNIS_NAME":null,"BLUE_LINE_KEY":356567471,"WATERSHED_KEY":356567471,"STREAM_ORDER":4,"STREAM_MAGNITUDE":23,"LEFT_RIGHT_TRIBUTARY":"RIGHT","LENGTH_METRE":248.89722925800399,"DOWNSTREAM_ROUTE_MEASURE":851.72078648708907,"FWA_WATERSHED_CODE":"300-625474-033788-600246-000000-000000-000000-000000-000000-000000-000000-000000-000000-000000-000000-000000-000000-000000-000000-000000-000000"}},{"type":"Feature","id":2346022,"geometry":{"type":"LineString","coordinates":[[1613130.9890000001,537646.06900000013],[1613125.466,537649.3900000006],[1613106.3450000007,537656.9729999993],[1613095.9289999995,537659.70600000024],[1613076.7009999994,537667.43600000069],[1613069.1140000001,537671.46499999985],[1613062.4600000009,537676.56399999931],[1613053.5260000005,537690.63599999994],[1613045.8670000006,537711.87700000033],[1613042.273,537724.51999999955],[1613039.2870000005,537731.17600000091],[1613032.682,537744.41300000064],[1613028.9189999998,537750.01899999939],[1613019.8019999992,537765.98200000077],[1613014.9210000001,537780.38299999945],[1613013.8650000002,537788.38800000027],[1613006.0350000001,537810.56599999964],[1612998.4940000009,537830.70500000007],[1612983.5500000007,537852.98299999908],[1612977.9049999993,537865.37900000066],[1612967.0879999995,537886.24000000022],[1612954.0250000004,537901.72900000028],[1612949.3149999995,537907.22100000083],[1612943.9609999992,537917.57899999991],[1612929.9509999994,537932.95299999975],[1612924.2440000009,537938.16599999927],[1612909.602,537957.45099999942]]},"properties":{"OBJECTID":2346022,"EDGE_TYPE":1000,"GNIS_NAME":null,"BLUE_LINE_KEY":356567471,"WATERSHED_KEY":356567471,"STREAM_ORDER":3,"STREAM_MAGNITUDE":18,"LEFT_RIGHT_TRIBUTARY":"RIGHT","LENGTH_METRE":399.24561559359404,"DOWNSTREAM_ROUTE_MEASURE":1100.6180157450901,"FWA_WATERSHED_CODE":"300-625474-033788-600246-000000-000000-000000-000000-000000-000000-000000-000000-000000-000000-000000-000000-000000-000000-000000-000000-000000"}},{"type":"Feature","id":730249,"geometry":{"type":"LineString","coordinates":[[1612539.8210000005,539688.2929999996],[1612531.5099999998,539706.42699999921],[1612516.5559999999,539728.70500000007],[1612509.0209999997,539747.8900000006],[1612506.4149999991,539768.78299999982],[1612505.1799999997,539785.69700000063],[1612503.9920000006,539810.74699999951],[1612506.693,539821.11800000072],[1612510.8550000004,539828.79499999993],[1612528.8000000007,539853.27800000086],[1612536.4309999999,539865.35799999908],[1612537.5439999998,539872.50799999945],[1612538.0690000001,539891.70600000024],[1612538.7520000003,539910.92300000042],[1612538.7599999998,539917.93999999948],[1612538.2039999999,539939.08000000007],[1612537.3200000003,539961.13800000027],[1612535.3090000004,539977.00100000016],[1612533.0059999991,539994.9020000007],[1612529.5859999992,540013.625],[1612525.8019999992,540028.15799999982],[1612523.5040000007,540038.08699999936],[1612517.8479999993,540058.45399999991],[1612511.8920000009,540073.84300000034],[1612504.7050000001,540098.17200000025],[1612501.2259999998,540109.71199999936],[1612494.6730000004,540130.13099999912],[1612490.6099999994,540145.74699999951],[1612478.4810000006,540169.32200000063],[1612472.5299999993,540176.7379999999],[1612465.284,540193.88399999961],[1612463.4440000001,540208.81100000069],[1612462.0289999992,540219.64299999923],[1612460.1879999992,540234.5700000003],[1612460.1830000002,540242.54199999943],[1612461.5319999997,540262.95600000024],[1612466.1640000008,540274.67500000075],[1612469.6329999994,540279.07899999991],[1612487.5620000008,540304.51700000092],[1612498.8530000001,540326.12700000033],[1612501.8900000006,540342.5979999993],[1612500.5390000008,540352.6400000006],[1612494.4030000009,540361.94700000063],[1612483.5170000009,540375.62600000016],[1612480.6840000004,540382.30100000091],[1612480.2660000008,540393.41300000064],[1612477.7780000009,540413.20500000007],[1612476.8829999994,540428.24599999934],[1612475.4680000003,540439.07799999975]]},"properties":{"OBJECTID":730249,"EDGE_TYPE":1000,"GNIS_NAME":null,"BLUE_LINE_KEY":356567471,"WATERSHED_KEY":356567471,"STREAM_ORDER":2,"STREAM_MAGNITUDE":2,"LEFT_RIGHT_TRIBUTARY":"RIGHT","LENGTH_METRE":799.00929293838612,"DOWNSTREAM_ROUTE_MEASURE":3418.8823456690302,"FWA_WATERSHED_CODE":"300-625474-033788-600246-000000-000000-000000-000000-000000-000000-000000-000000-000000-000000-000000-000000-000000-000000-000000-000000-000000"}}]}