{
  "type": "FeatureCollection",
  "features": [
    {
      "type": "Feature",
      "properties": {
        "__gm_id": "feature-3",
        "__gm_shape": "polygon"
      },
      "geometry": {
        "type": "MultiPolygon",
        "coordinates": [
          [
            [
              [
                -117.64185211877646,
                49.554820970168066
              ],
              [
                -117.6385265549809,
                49.52763610047717
              ],
              [
                -117.52821116461587,
                49.424440185449214
              ],
              [
                -117.51280197689897,
                49.45498067622563
              ],
              [
                -117.46455419573078,
                49.45373379403355
              ],
              [
                -117.45489830462566,
                49.47464231582833
              ],
              [
                -117.44459850463278,
                49.480494674770654
              ],
              [
                -117.41563654145466,
                49.478811158884554
              ],
              [
                -117.40597370954936,
                49.48507855908889
              ],
              [
                -117.38602690135963,
                49.47921045500189
              ],
              [
                -117.3673333760716,
                49.49132228640994
              ],
              [
                -117.3904149187697,
                49.54863360556726
              ],
              [
                -117.44776059316564,
                49.58839304413297
              ],
              [
                -117.51100928765015,
                49.61516809102568
              ],
              [
                -117.5400785509047,
                49.62520226232576
              ],
              [
                -117.63161286100967,
                49.57700662408101
              ],
              [
                -117.65091112151265,
                49.56150237071594
              ],
              [
                -117.64185211877646,
                49.554820970168066
              ]
            ]
          ]
        ]
      },
      "id": "feature-3"
    }
  ]
}