{
  "type": "FeatureCollection",
  "name": "single central ignition",
  "crs": {
    "type": "name",
    "properties": {
      "name": "urn:ogc:def:crs:OGC:1.3:CRS84"
    }
  },
  "features": [
    {
      "type": "Feature",
      "properties": {
        "GRID_ID": "SW_QUADRANT_CENTER",
        "definition": "centre of the AOI projected bounding box",
        "requested_x_epsg3005": 1613608.766896125,
        "requested_y_epsg3005": 537575.6471688692
      },
      "geometry": {
        "type": "Point",
        "coordinates": [
          -117.50967916130027,
          49.522910931152246
        ]
      }
    }
  ]
}
